NORAD_CAT_ID,OBJECT_NAME,OBJECT_TYPE,EPOCH,MEAN_MOTION,ECCENTRICITY,INCLINATION,RA_OF_ASC_NODE,ARG_OF_PERICENTER,MEAN_ANOMALY,BSTAR,MEAN_MOTION_DOT,MEAN_MOTION_DDOT,TLE_LINE0,TLE_LINE1,TLE_LINE2,SEMIMAJOR_AXIS,PERIOD,APOGEE,PERIGEE,DECAYED
55786.0,STARLINK-5823,PAYLOAD,2023-05-06 23:26:26,15.69940189,0.0003528,69.9992,334.6311,275.0465,85.0328,2.4502e-05,2.736e-05,0.0,0 STARLINK-5823,1 55786U 23028AX  23126.97669443  .00002736  00000-0  24502-4 0  9993,2 55786  69.9992 334.6311 0003528 275.0465  85.0328 15.69940189 10745,6737.205,91.723,361.447,356.693,0.0
55786.0,STARLINK-5823,PAYLOAD,2023-05-07 16:15:43,15.69918818,0.0003294,70.0006,332.6617,282.5316,77.5511,0.00012543,0.00014892,0.0,0 STARLINK-5823,1 55786U 23028AX  23127.67758733  .00014892  00000-0  12543-3 0  9999,2 55786  70.0006 332.6617 0003294 282.5316  77.5511 15.69918818 10855,6737.266,91.724,361.351,356.912,0.0
55786.0,STARLINK-5823,PAYLOAD,2023-05-07 23:54:29,15.69943969,0.0003266,69.9998,331.7649,288.4168,71.6672,0.00030958,0.00037207,0.0,0 STARLINK-5823,1 55786U 23028AX  23127.99617020  .00037207  00000-0  30958-3 0  9992,2 55786  69.9998 331.7649 0003266 288.4168  71.6672 15.69943969 10900,6737.194,91.723,361.26,356.859,0.0
55786.0,STARLINK-5823,PAYLOAD,2023-05-08 21:19:00,15.69952087,0.0003451,70.001,329.2592,271.4362,88.6439,0.00014903,0.00017766,0.0,0 STARLINK-5823,1 55786U 23028AX  23128.88819595  .00017766  00000-0  14903-3 0  9992,2 55786  70.0010 329.2592 0003451 271.4362  88.6439 15.69952087 11058,6737.171,91.723,361.361,356.711,0.0
55786.0,STARLINK-5823,PAYLOAD,2023-05-09 06:29:31,15.69924431,0.0003199,69.9997,328.1832,272.8793,87.2036,2.4186e-05,2.696e-05,0.0,0 STARLINK-5823,1 55786U 23028AX  23129.27050293  .00002696  00000-0  24186-4 0  9999,2 55786  69.9997 328.1832 0003199 272.8793  87.2036 15.69924431 11102,6737.25,91.724,361.27,356.96,0.0
55786.0,STARLINK-5823,PAYLOAD,2023-05-09 14:08:16,15.69932763,0.0003322,69.9986,327.2859,276.1271,83.9546,0.00010536,0.00012479,0.0,0 STARLINK-5823,1 55786U 23028AX  23129.58908424  .00012479  00000-0  10536-3 0  9994,2 55786  69.9986 327.2859 0003322 276.1271  83.9546 15.69932763 11167,6737.226,91.724,361.329,356.853,0.0
55786.0,STARLINK-5823,PAYLOAD,2023-05-09 21:47:02,15.69924796,0.0003739,70.0003,326.3906,271.7773,88.2994,5.3794e-05,6.261e-05,0.0,0 STARLINK-5823,1 55786U 23028AX  23129.90766883  .00006261  00000-0  53794-4 0  9997,2 55786  70.0003 326.3906 0003739 271.7773  88.2994 15.69924796 11211,6737.249,91.724,361.633,356.595,0.0
55786.0,STARLINK-5823,PAYLOAD,2023-05-10 19:11:33,15.69944216,0.0003459,69.9995,323.8806,261.7331,98.3472,0.00010751,0.00012745,0.0,0 STARLINK-5823,1 55786U 23028AX  23130.79969902  .00012745  00000-0  10751-3 0  9992,2 55786  69.9995 323.8806 0003459 261.7331  98.3472 15.69944216 11343,6737.194,91.723,361.389,356.728,0.0
55786.0,STARLINK-5823,PAYLOAD,2023-05-11 05:53:50,15.69916926,0.0002978,70.0006,322.6291,265.3504,94.7351,-4.8519e-06,-7.96e-06,0.0,0 STARLINK-5823,1 55786U 23028AX  23131.24572261 -.00000796  00000-0 -48519-5 0  9991,2 55786  70.0006 322.6291 0002978 265.3504  94.7351 15.69916926 11412,6737.272,91.725,361.143,357.13,0.0
55786.0,STARLINK-5823,PAYLOAD,2023-05-11 15:04:21,15.69918086,0.0003413,70.0007,321.5538,269.72,90.3604,-1.8118e-06,-4.31e-06,0.0,0 STARLINK-5823,1 55786U 23028AX  23131.62802390 -.00000431  00000-0 -18118-5 0  9990,2 55786  70.0007 321.5538 0003413 269.7200  90.3604 15.69918086 11480,6737.268,91.725,361.433,356.834,0.0
55786.0,STARLINK-5823,PAYLOAD,2023-05-11 22:43:06,15.69933613,0.0002995,70.0013,320.6584,268.5892,91.496,0.00010253,0.00012138,0.0,0 STARLINK-5823,1 55786U 23028AX  23131.94660648  .00012138  00000-0  10253-3 0  9998,2 55786  70.0013 320.6584 0002995 268.5892  91.4960 15.69933613 11521,6737.224,91.724,361.107,357.071,0.0
55786.0,STARLINK-5823,PAYLOAD,2023-05-12 15:32:23,15.6993163,0.0003059,70.0009,318.6888,264.6635,95.4212,5.8446e-05,6.823e-05,0.0,0 STARLINK-5823,1 55786U 23028AX  23132.64748916  .00006823  00000-0  58446-4 0  9992,2 55786  70.0009 318.6888 0003059 264.6635  95.4212 15.69931630 11648,6737.23,91.724,361.156,357.034,0.0
55786.0,STARLINK-5823,PAYLOAD,2023-05-12 21:39:23,15.69954557,0.0003235,70.0009,317.9712,266.601,93.4815,0.00012709,0.00015115,0.0,0 STARLINK-5823,1 55786U 23028AX  23132.90235028  .00015115  00000-0  12709-3 0  9991,2 55786  70.0009 317.9712 0003235 266.6010  93.4815 15.69954557 11674,6737.164,91.722,361.208,356.85,0.0
55786.0,STARLINK-5823,PAYLOAD,2023-05-13 05:18:08,15.6994144,0.0003373,70.0002,317.0771,272.1463,87.9346,5.6474e-05,6.588e-05,0.0,0 STARLINK-5823,1 55786U 23028AX  23133.22093273  .00006588  00000-0  56474-4 0  9993,2 55786  70.0002 317.0771 0003373 272.1463  87.9346 15.69941440 11720,6737.202,91.723,361.339,356.794,0.0
55786.0,STARLINK-5823,PAYLOAD,2023-05-13 12:56:54,15.69932291,0.0002337,70.0018,316.1843,257.1547,102.9387,1.0897e-05,1.099e-05,0.0,0 STARLINK-5823,1 55786U 23028AX  23133.53952068  .00001099  00000-0  10897-4 0  9994,2 55786  70.0018 316.1843 0002337 257.1547 102.9387 15.69932291 11774,6737.228,91.724,360.667,357.518,0.0
55786.0,STARLINK-5823,PAYLOAD,2023-05-13 20:35:40,15.69920498,0.0002957,70.0013,315.2872,262.6437,97.4423,-5.5259e-06,-8.77e-06,0.0,0 STARLINK-5823,1 55786U 23028AX  23133.85810529 -.00000877  00000-0 -55259-5 0  9991,2 55786  70.0013 315.2872 0002957 262.6437  97.4423 15.69920498 11829,6737.261,91.724,361.119,357.134,0.0
55786.0,STARLINK-5823,PAYLOAD,2023-05-14 13:24:56,15.6994055,0.000336,70.0001,313.3135,279.6643,80.4173,0.00015679,0.00018695,0.0,0 STARLINK-5823,1 55786U 23028AX  23134.55898827  .00018695  00000-0  15679-3 0  9991,2 55786  70.0001 313.3135 0003360 279.6643  80.4173 15.69940550 11941,6737.204,91.723,361.333,356.805,0.0
55786.0,STARLINK-5823,PAYLOAD,2023-05-14 21:03:42,15.69920841,0.000407,69.9993,312.419,277.8946,82.1787,2.9154e-05,3.294e-05,0.0,0 STARLINK-5823,1 55786U 23028AX  23134.87757421  .00003294  00000-0  29154-4 0  9993,2 55786  69.9993 312.4190 0004070 277.8946  82.1787 15.69920841 11990,6737.26,91.724,361.868,356.383,0.0
55786.0,STARLINK-5823,PAYLOAD,2023-05-14 22:35:27,15.69922821,0.0004061,69.9993,312.2399,277.5777,82.4957,1.4102e-05,1.483e-05,0.0,0 STARLINK-5823,1 55786U 23028AX  23134.94128952  .00001483  00000-0  14102-4 0  9997,2 55786  69.9993 312.2399 0004061 277.5777  82.4957 15.69922821 11990,6737.255,91.724,361.856,356.384,0.0
55786.0,STARLINK-5823,PAYLOAD,2023-05-15 12:21:13,15.69919932,0.0003779,69.9991,310.6259,274.9062,85.1702,2.7969e-05,3.151e-05,0.0,0 STARLINK-5823,1 55786U 23028AX  23135.51474437  .00003151  00000-0  27969-4 0  9992,2 55786  69.9991 310.6259 0003779 274.9062  85.1702 15.69919932 12097,6737.263,91.724,361.674,356.582,0.0
55786.0,STARLINK-5823,PAYLOAD,2023-05-15 18:28:14,15.69929414,0.0003772,69.9992,309.9092,275.2669,84.8096,3.8136e-05,4.376e-05,0.0,0 STARLINK-5823,1 55786U 23028AX  23135.76960800  .00004376  00000-0  38136-4 0  9991,2 55786  69.9992 309.9092 0003772 275.2669  84.8096 15.69929414 12137,6737.236,91.724,361.642,356.56,0.0
55786.0,STARLINK-5823,PAYLOAD,2023-05-16 05:10:30,15.69926314,0.0004457,69.9987,308.655,275.0878,84.9809,2.7312e-05,3.073e-05,0.0,0 STARLINK-5823,1 55786U 23028AX  23136.21562655  .00003073  00000-0  27312-4 0  9995,2 55786  69.9987 308.6550 0004457 275.0878  84.9809 15.69926314 12192,6737.245,91.724,362.113,356.107,0.0
55786.0,STARLINK-5823,PAYLOAD,2023-05-16 12:49:16,15.69908895,0.0003149,69.9999,307.7586,276.5446,83.5392,-1.0308e-05,-1.451e-05,0.0,0 STARLINK-5823,1 55786U 23028AX  23136.53422173 -.00001451  00000-0 -10308-4 0  9997,2 55786  69.9999 307.7586 0003149 276.5446  83.5392 15.69908895 12240,6737.295,91.725,361.281,357.038,0.0
55786.0,STARLINK-5823,PAYLOAD,2023-05-16 17:24:32,15.69915897,0.0004012,70.0002,307.2234,280.0672,80.0071,1.0602e-05,1.062e-05,0.0,0 STARLINK-5823,1 55786U 23028AX  23136.72537072  .00001062  00000-0  10602-4 0  9996,2 55786  70.0002 307.2234 0004012 280.0672  80.0071 15.69915897 12284,6737.275,91.725,361.843,356.437,0.0
55786.0,STARLINK-5823,PAYLOAD,2023-05-17 19:24:18,15.69930464,0.0003538,70.0014,304.1795,264.5314,95.5478,3.3316e-05,3.796e-05,0.0,0 STARLINK-5823,1 55786U 23028AX  23137.80854459  .00003796  00000-0  33316-4 0  9990,2 55786  70.0014 304.1795 0003538 264.5314  95.5478 15.69930464 12444,6737.233,91.724,361.482,356.714,0.0
55786.0,STARLINK-5823,PAYLOAD,2023-05-17 20:56:03,15.69921678,0.0003587,69.9998,303.9983,270.88,89.1985,6.5943e-06,5.8e-06,0.0,0 STARLINK-5823,1 55786U 23028AX  23137.87226651  .00000580  00000-0  65943-5 0  9994,2 55786  69.9998 303.9983 0003587 270.8800  89.1985 15.69921678 12463,6737.258,91.724,361.54,356.706,0.0
55786.0,STARLINK-5823,PAYLOAD,2023-05-18 12:13:35,15.69919487,0.0003616,69.9999,302.2069,273.6422,86.436,3.1116e-06,1.61e-06,0.0,0 STARLINK-5823,1 55786U 23028AX  23138.50943595  .00000161  00000-0  31116-5 0  9998,2 55786  69.9999 302.2069 0003616 273.6422  86.4360 15.69919487 12568,6737.264,91.724,361.566,356.693,0.0
55786.0,STARLINK-5823,PAYLOAD,2023-05-18 21:24:05,15.69933301,0.0003521,69.9996,301.1291,267.1642,92.915,2.2438e-05,2.487e-05,0.0,0 STARLINK-5823,1 55786U 23028AX  23138.89172993  .00002487  00000-0  22438-4 0  9995,2 55786  69.9996 301.1291 0003521 267.1642  92.9150 15.69933301 12624,6737.225,91.724,361.462,356.718,0.0
55786.0,STARLINK-5823,PAYLOAD,2023-05-19 20:20:22,15.69932455,0.0003564,70.0002,298.4436,263.0717,97.0074,1.0675e-06,-8.4e-07,0.0,0 STARLINK-5823,1 55786U 23028AX  23139.84747702 -.00000084  00000-0  10675-5 0  9990,2 55786  70.0002 298.4436 0003564 263.0717  97.0074 15.69932455 12775,6737.227,91.724,361.493,356.691,0.0
55786.0,STARLINK-5823,PAYLOAD,2023-05-20 17:44:52,15.69962409,0.0003417,70.0008,295.9355,274.4395,85.6411,7.8368e-05,9.236e-05,0.0,0 STARLINK-5823,1 55786U 23028AX  23140.73949510  .00009236  00000-0  78368-4 0  9990,2 55786  70.0008 295.9355 0003417 274.4395  85.6411 15.69962409 12903,6737.142,91.722,361.309,356.704,0.0
